{
  "norad_id": 67888,
  "name": "STARLINK-36801",
  "history": [
    {
      "epoch": "2026-03-28T19:00:34.731360Z",
      "apogee_km": 345.0641919680129,
      "perigee_km": 342.8131032751371,
      "latitude_deg": 4.9455513576505264e-05,
      "longitude_deg": -90.17245465781643,
      "height_km": 347.02201198076995,
      "semi_major_axis_km": 6722.075647621575,
      "eccentricity": 0.00016744,
      "inclination_deg": 97.2861,
      "raan_deg": 21.1797,
      "arg_perigee_deg": 85.8081,
      "mean_anomaly_deg": 274.3376,
      "mean_motion_rev_day": 15.752434
    }
  ]
}